QIANFAN-41              
1 62242U 24232F   25333.80075771  .00000120  00000+0  16789-3 0  9996
2 62242  89.0038  42.5013 0013035 221.5296 138.4866 13.50974393 97501
QIANFAN-42              
1 62243U 24232G   25333.84750750  .00000492  00000+0  20582-3 0  9996
2 62243  89.0028  38.8285 0017121 123.4873 236.7959 14.24469272 99538
QIANFAN-43              
1 62244U 24232H   25333.79658179  .00000137  00000+0  19308-3 0  9993
2 62244  89.0042  42.5664 0014385 227.8795 132.1134 13.50973270 66117
QIANFAN-44              
1 62245U 24232J   25333.78431913  .00000148  00000+0  21078-3 0  9997
2 62245  89.0040  42.3786 0012689 223.8319 136.1826 13.50975677 97582
QIANFAN-45              
1 62246U 24232K   25333.75135554  .00000058  00000+0  71054-4 0  9997
2 62246  89.0044  42.5279 0013361 223.9277 136.0813 13.50975175 97508
QIANFAN-46              
1 62247U 24232L   25333.85014277  .00000146  00000+0  20733-3 0  9992
2 62247  89.0040  42.5875 0013250 229.6398 130.3596 13.50977645 97476
QIANFAN-47              
1 62248U 24232M   25333.78018455  .00000054  00000+0  64552-4 0  9993
2 62248  89.0036  42.5280 0013700 229.1155 130.8810 13.50973533 97496
QIANFAN-48              
1 62249U 24232N   25333.81721322  .00000156  00000+0  22292-3 0  9999
2 62249  89.0040  42.5256 0015872 232.6972 127.2733 13.50975516 97502
